{"type":"FeatureCollection","features":[{"type":"Feature","properties":{"name":"M-2 (Lahore - Islamabad Motorway)","type":"Motorway","ref":"M-2"},"geometry":{"type":"LineString","coordinates":[[74.3587,31.5204],[74.1953,31.642],[73.91,31.81],[73.55,32.08],[73.2,32.35],[72.85,32.7],[72.8,33.1],[72.9579,33.6508]]}},{"type":"Feature","properties":{"name":"M-1 (Islamabad - Peshawar Motorway)","type":"Motorway","ref":"M-1"},"geometry":{"type":"LineString","coordinates":[[72.9579,33.6508],[72.68,33.75],[72.35,33.9],[72.0,34.0],[71.5249,34.0151]]}},{"type":"Feature","properties":{"name":"M-5 (Multan - Sukkur Motorway)","type":"Motorway","ref":"M-5"},"geometry":{"type":"LineString","coordinates":[[71.5249,30.1575],[71.3,29.8],[70.9,29.3],[70.3,28.5],[68.857,27.7052]]}},{"type":"Feature","properties":{"name":"M-9 (Karachi - Hyderabad Motorway)","type":"Motorway","ref":"M-9"},"geometry":{"type":"LineString","coordinates":[[67.0011,24.8607],[67.4,25.0],[67.8,25.2],[68.3578,25.396]]}},{"type":"Feature","properties":{"name":"N-5 (GT Road - Karachi to Peshawar)","type":"National Highway","ref":"N-5"},"geometry":{"type":"LineString","coordinates":[[67.0011,24.8607],[68.3578,25.396],[68.5333,26.2442],[68.857,27.7052],[71.5249,30.1575],[74.3587,31.5204],[74.18,32.15],[73.08,33.6],[71.5249,34.0151]]}},{"type":"Feature","properties":{"name":"N-35 (Karakoram Highway / CPEC)","type":"National Highway","ref":"N-35"},"geometry":{"type":"LineString","coordinates":[[73.08,33.6],[73.2,34.15],[73.22,34.53],[73.0,35.15],[74.3,35.92],[74.8446,35.8028],[74.8,36.3],[75.4,36.8]]}},{"type":"Feature","properties":{"name":"N-25 (Quetta - Karachi Highway)","type":"National Highway","ref":"N-25"},"geometry":{"type":"LineString","coordinates":[[67.0011,24.8607],[66.6,25.5],[66.6,27.8],[66.9,29.5],[67.0099,30.1798]]}}]}